[{"OBJECT_NAME":"STARLINK-1626","OBJECT_ID":"2020-057BC","EPOCH":"2025-10-24T18:50:24.292032","MEAN_MOTION":15.0640803,"ECCENTRICITY":0.00012,"INCLINATION":53.0545,"RA_OF_ASC_NODE":206.7176,"ARG_OF_PERICENTER":95.0987,"MEAN_ANOMALY":265.0139,"EPHEMERIS_TYPE":0,"CLASSIFICATION_TYPE":"U","NORAD_CAT_ID":46167,"ELEMENT_SET_NO":999,"REV_AT_EPOCH":28558,"BSTAR":0.00037521,"MEAN_MOTION_DOT":5.313e-5,"MEAN_MOTION_DDOT":0},{"OBJECT_NAME":"STARLINK-1627","OBJECT_ID":"2020-057BD","EPOCH":"2025-10-24T20:00:03.000384","MEAN_MOTION":15.28597268,"ECCENTRICITY":0.0001215,"INCLINATION":53.0579,"RA_OF_ASC_NODE":155.6682,"ARG_OF_PERICENTER":92.2509,"MEAN_ANOMALY":39.395,"EPHEMERIS_TYPE":0,"CLASSIFICATION_TYPE":"U","NORAD_CAT_ID":46168,"ELEMENT_SET_NO":999,"REV_AT_EPOCH":583,"BSTAR":0.034344,"MEAN_MOTION_DOT":0.01057323,"MEAN_MOTION_DDOT":0},{"OBJECT_NAME":"STARLINK-1628","OBJECT_ID":"2020-057BE","EPOCH":"2025-10-24T20:12:52.816608","MEAN_MOTION":16.06482011,"ECCENTRICITY":0.0008314,"INCLINATION":53.0275,"RA_OF_ASC_NODE":91.1716,"ARG_OF_PERICENTER":288.6382,"MEAN_ANOMALY":71.3746,"EPHEMERIS_TYPE":0,"CLASSIFICATION_TYPE":"U","NORAD_CAT_ID":46169,"ELEMENT_SET_NO":999,"REV_AT_EPOCH":28715,"BSTAR":0.0014004,"MEAN_MOTION_DOT":0.01076464,"MEAN_MOTION_DDOT":0.00065893},{"OBJECT_NAME":"STARLINK-1633","OBJECT_ID":"2020-057BG","EPOCH":"2025-10-24T20:00:03.000384","MEAN_MOTION":15.30996161,"ECCENTRICITY":0.000101,"INCLINATION":53.0569,"RA_OF_ASC_NODE":185.2566,"ARG_OF_PERICENTER":115.3054,"MEAN_ANOMALY":198.8314,"EPHEMERIS_TYPE":0,"CLASSIFICATION_TYPE":"U","NORAD_CAT_ID":46171,"ELEMENT_SET_NO":999,"REV_AT_EPOCH":581,"BSTAR":-5.462e-5,"MEAN_MOTION_DOT":-2.02e-5,"MEAN_MOTION_DDOT":0},{"OBJECT_NAME":"STARLINK-1635","OBJECT_ID":"2020-057BH","EPOCH":"2025-10-24T20:00:03.000384","MEAN_MOTION":15.3098893,"ECCENTRICITY":0.0001431,"INCLINATION":53.0557,"RA_OF_ASC_NODE":184.9222,"ARG_OF_PERICENTER":110.3601,"MEAN_ANOMALY":293.637,"EPHEMERIS_TYPE":0,"CLASSIFICATION_TYPE":"U","NORAD_CAT_ID":46172,"ELEMENT_SET_NO":999,"REV_AT_EPOCH":580,"BSTAR":-0.00013679,"MEAN_MOTION_DOT":-4.512e-5,"MEAN_MOTION_DDOT":0},{"OBJECT_NAME":"STARLINK-1640","OBJECT_ID":"2020-057BJ","EPOCH":"2025-10-24T18:07:58.484928","MEAN_MOTION":15.06403506,"ECCENTRICITY":0.0002257,"INCLINATION":53.054,"RA_OF_ASC_NODE":206.8525,"ARG_OF_PERICENTER":86.9924,"MEAN_ANOMALY":273.1323,"EPHEMERIS_TYPE":0,"CLASSIFICATION_TYPE":"U","NORAD_CAT_ID":46173,"ELEMENT_SET_NO":999,"REV_AT_EPOCH":28557,"BSTAR":0.00097346,"MEAN_MOTION_DOT":0.00014249,"MEAN_MOTION_DDOT":0},{"OBJECT_NAME":"STARLINK-1641","OBJECT_ID":"2020-057BK","EPOCH":"2025-10-24T20:00:03.000384","MEAN_MOTION":15.26130967,"ECCENTRICITY":8.96e-5,"INCLINATION":53.055,"RA_OF_ASC_NODE":205.5534,"ARG_OF_PERICENTER":77.2526,"MEAN_ANOMALY":72.7858,"EPHEMERIS_TYPE":0,"CLASSIFICATION_TYPE":"U","NORAD_CAT_ID":46174,"ELEMENT_SET_NO":999,"REV_AT_EPOCH":581,"BSTAR":0.00024819,"MEAN_MOTION_DOT":6.153e-5,"MEAN_MOTION_DDOT":0},{"OBJECT_NAME":"STARLINK-1734","OBJECT_ID":"2020-062A","EPOCH":"2025-10-24T20:00:03.000384","MEAN_MOTION":15.63446166,"ECCENTRICITY":0.0014269,"INCLINATION":53.0227,"RA_OF_ASC_NODE":170.7135,"ARG_OF_PERICENTER":92.4299,"MEAN_ANOMALY":29.0678,"EPHEMERIS_TYPE":0,"CLASSIFICATION_TYPE":"U","NORAD_CAT_ID":46325,"ELEMENT_SET_NO":999,"REV_AT_EPOCH":591,"BSTAR":0.0020265,"MEAN_MOTION_DOT":0.00195643,"MEAN_MOTION_DDOT":0},{"OBJECT_NAME":"STARLINK-1654","OBJECT_ID":"2020-062B","EPOCH":"2025-10-24T20:00:03.000384","MEAN_MOTION":15.25585188,"ECCENTRICITY":0.0001459,"INCLINATION":53.055,"RA_OF_ASC_NODE":266.0143,"ARG_OF_PERICENTER":88.0586,"MEAN_ANOMALY":259.3261,"EPHEMERIS_TYPE":0,"CLASSIFICATION_TYPE":"U","NORAD_CAT_ID":46326,"ELEMENT_SET_NO":999,"REV_AT_EPOCH":581,"BSTAR":0.03915,"MEAN_MOTION_DOT":0.01088223,"MEAN_MOTION_DDOT":0},{"OBJECT_NAME":"STARLINK-1686","OBJECT_ID":"2020-062D","EPOCH":"2025-10-24T20:00:03.000384","MEAN_MOTION":15.28420189,"ECCENTRICITY":0.000164,"INCLINATION":53.0533,"RA_OF_ASC_NODE":245.6321,"ARG_OF_PERICENTER":103.9602,"MEAN_ANOMALY":307.7589,"EPHEMERIS_TYPE":0,"CLASSIFICATION_TYPE":"U","NORAD_CAT_ID":46328,"ELEMENT_SET_NO":999,"REV_AT_EPOCH":582,"BSTAR":0.059364,"MEAN_MOTION_DOT":0.01827735,"MEAN_MOTION_DDOT":0},{"OBJECT_NAME":"STARLINK-1695","OBJECT_ID":"2020-062E","EPOCH":"2025-10-24T03:26:53.474208","MEAN_MOTION":15.06387019,"ECCENTRICITY":0.00014633,"INCLINATION":53.0541,"RA_OF_ASC_NODE":249.5972,"ARG_OF_PERICENTER":94.862,"MEAN_ANOMALY":265.2536,"EPHEMERIS_TYPE":0,"CLASSIFICATION_TYPE":"U","NORAD_CAT_ID":46329,"ELEMENT_SET_NO":999,"REV_AT_EPOCH":28400,"BSTAR":4.5397211e-5,"MEAN_MOTION_DOT":3.95e-6,"MEAN_MOTION_DDOT":0},{"OBJECT_NAME":"STARLINK-1710","OBJECT_ID":"2020-062F","EPOCH":"2025-10-24T20:00:03.000384","MEAN_MOTION":15.42484545,"ECCENTRICITY":0.0010836,"INCLINATION":53.0474,"RA_OF_ASC_NODE":226.5461,"ARG_OF_PERICENTER":60.2038,"MEAN_ANOMALY":285.2541,"EPHEMERIS_TYPE":0,"CLASSIFICATION_TYPE":"U","NORAD_CAT_ID":46330,"ELEMENT_SET_NO":999,"REV_AT_EPOCH":589,"BSTAR":0.00274,"MEAN_MOTION_DOT":0.0012229,"MEAN_MOTION_DDOT":0},{"OBJECT_NAME":"STARLINK-1719","OBJECT_ID":"2020-062G","EPOCH":"2025-10-24T19:39:17.876160","MEAN_MOTION":15.29928576,"ECCENTRICITY":0.0002587,"INCLINATION":53.0549,"RA_OF_ASC_NODE":264.3384,"ARG_OF_PERICENTER":95.8962,"MEAN_ANOMALY":264.2333,"EPHEMERIS_TYPE":0,"CLASSIFICATION_TYPE":"U","NORAD_CAT_ID":46331,"ELEMENT_SET_NO":999,"REV_AT_EPOCH":28386,"BSTAR":0.0032719,"MEAN_MOTION_DOT":0.0009701,"MEAN_MOTION_DDOT":0},{"OBJECT_NAME":"STARLINK-1723","OBJECT_ID":"2020-062J","EPOCH":"2025-10-24T20:00:03.000384","MEAN_MOTION":15.17219634,"ECCENTRICITY":0.000166,"INCLINATION":53.0534,"RA_OF_ASC_NODE":266.2605,"ARG_OF_PERICENTER":71.6596,"MEAN_ANOMALY":286.1505,"EPHEMERIS_TYPE":0,"CLASSIFICATION_TYPE":"U","NORAD_CAT_ID":46333,"ELEMENT_SET_NO":999,"REV_AT_EPOCH":582,"BSTAR":0.090423,"MEAN_MOTION_DOT":0.02024127,"MEAN_MOTION_DDOT":0},{"OBJECT_NAME":"STARLINK-1727","OBJECT_ID":"2020-062L","EPOCH":"2025-10-24T20:00:03.000384","MEAN_MOTION":15.12869197,"ECCENTRICITY":0.0001553,"INCLINATION":53.0555,"RA_OF_ASC_NODE":266.3589,"ARG_OF_PERICENTER":84.624,"MEAN_ANOMALY":61.0134,"EPHEMERIS_TYPE":0,"CLASSIFICATION_TYPE":"U","NORAD_CAT_ID":46335,"ELEMENT_SET_NO":999,"REV_AT_EPOCH":583,"BSTAR":0.054326,"MEAN_MOTION_DOT":0.01043175,"MEAN_MOTION_DDOT":0},{"OBJECT_NAME":"STARLINK-1738","OBJECT_ID":"2020-062M","EPOCH":"2025-10-24T18:40:00.332832","MEAN_MOTION":15.43308265,"ECCENTRICITY":0.0013934,"INCLINATION":53.0479,"RA_OF_ASC_NODE":227.407,"ARG_OF_PERICENTER":41.8011,"MEAN_ANOMALY":318.4056,"EPHEMERIS_TYPE":0,"CLASSIFICATION_TYPE":"U","NORAD_CAT_ID":46336,"ELEMENT_SET_NO":999,"REV_AT_EPOCH":28437,"BSTAR":0.0027115,"MEAN_MOTION_DOT":0.00124621,"MEAN_MOTION_DDOT":0},{"OBJECT_NAME":"STARLINK-1750","OBJECT_ID":"2020-062N","EPOCH":"2025-10-24T20:00:03.000384","MEAN_MOTION":15.40785641,"ECCENTRICITY":0.0009206,"INCLINATION":53.0514,"RA_OF_ASC_NODE":238.7044,"ARG_OF_PERICENTER":86.4933,"MEAN_ANOMALY":348.6275,"EPHEMERIS_TYPE":0,"CLASSIFICATION_TYPE":"U","NORAD_CAT_ID":46337,"ELEMENT_SET_NO":999,"REV_AT_EPOCH":586,"BSTAR":0.0041044,"MEAN_MOTION_DOT":0.00174361,"MEAN_MOTION_DDOT":0},{"OBJECT_NAME":"STARLINK-1752","OBJECT_ID":"2020-062P","EPOCH":"2025-10-24T20:00:03.000384","MEAN_MOTION":15.15042908,"ECCENTRICITY":0.0001582,"INCLINATION":53.0547,"RA_OF_ASC_NODE":266.3617,"ARG_OF_PERICENTER":97.1255,"MEAN_ANOMALY":106.6433,"EPHEMERIS_TYPE":0,"CLASSIFICATION_TYPE":"U","NORAD_CAT_ID":46338,"ELEMENT_SET_NO":999,"REV_AT_EPOCH":583,"BSTAR":0.10063,"MEAN_MOTION_DOT":0.02090472,"MEAN_MOTION_DDOT":0},{"OBJECT_NAME":"STARLINK-1759","OBJECT_ID":"2020-062R","EPOCH":"2025-10-24T15:00:34.487424","MEAN_MOTION":15.27517717,"ECCENTRICITY":0.0007058,"INCLINATION":53.0358,"RA_OF_ASC_NODE":256.6419,"ARG_OF_PERICENTER":26.6036,"MEAN_ANOMALY":333.5323,"EPHEMERIS_TYPE":0,"CLASSIFICATION_TYPE":"U","NORAD_CAT_ID":46340,"ELEMENT_SET_NO":999,"REV_AT_EPOCH":28394,"BSTAR":0.0036059,"MEAN_MOTION_DOT":0.00099403,"MEAN_MOTION_DDOT":0},{"OBJECT_NAME":"STARLINK-1762","OBJECT_ID":"2020-062T","EPOCH":"2025-10-24T15:15:28.125216","MEAN_MOTION":15.06408337,"ECCENTRICITY":0.0001552,"INCLINATION":53.0551,"RA_OF_ASC_NODE":267.3889,"ARG_OF_PERICENTER":90.137,"MEAN_ANOMALY":269.9797,"EPHEMERIS_TYPE":0,"CLASSIFICATION_TYPE":"U","NORAD_CAT_ID":46342,"ELEMENT_SET_NO":999,"REV_AT_EPOCH":28380,"BSTAR":0.00023001,"MEAN_MOTION_DOT":3.147e-5,"MEAN_MOTION_DDOT":0},{"OBJECT_NAME":"STARLINK-1764","OBJECT_ID":"2020-062U","EPOCH":"2025-10-24T20:00:03.000384","MEAN_MOTION":15.17634884,"ECCENTRICITY":0.0001544,"INCLINATION":53.0563,"RA_OF_ASC_NODE":246.2568,"ARG_OF_PERICENTER":109.8896,"MEAN_ANOMALY":38.084,"EPHEMERIS_TYPE":0,"CLASSIFICATION_TYPE":"U","NORAD_CAT_ID":46343,"ELEMENT_SET_NO":999,"REV_AT_EPOCH":581,"BSTAR":0.089114,"MEAN_MOTION_DOT":0.02017905,"MEAN_MOTION_DDOT":0},{"OBJECT_NAME":"STARLINK-1765","OBJECT_ID":"2020-062V","EPOCH":"2025-10-24T20:00:03.000384","MEAN_MOTION":15.38198445,"ECCENTRICITY":0.0004679,"INCLINATION":53.0522,"RA_OF_ASC_NODE":241.8703,"ARG_OF_PERICENTER":106.0671,"MEAN_ANOMALY":28.7915,"EPHEMERIS_TYPE":0,"CLASSIFICATION_TYPE":"U","NORAD_CAT_ID":46344,"ELEMENT_SET_NO":999,"REV_AT_EPOCH":582,"BSTAR":0.0038643,"MEAN_MOTION_DOT":0.00150141,"MEAN_MOTION_DDOT":0},{"OBJECT_NAME":"STARLINK-1767","OBJECT_ID":"2020-062W","EPOCH":"2025-10-24T20:00:03.000384","MEAN_MOTION":15.48155468,"ECCENTRICITY":0.0011653,"INCLINATION":53.0474,"RA_OF_ASC_NODE":245.4969,"ARG_OF_PERICENTER":38.7191,"MEAN_ANOMALY":163.6396,"EPHEMERIS_TYPE":0,"CLASSIFICATION_TYPE":"U","NORAD_CAT_ID":46345,"ELEMENT_SET_NO":999,"REV_AT_EPOCH":593,"BSTAR":0.0038863,"MEAN_MOTION_DOT":0.00213374,"MEAN_MOTION_DDOT":0}]
